STARLINK-36939          
1 68034U 26040V   26087.58335648 -.01961762  00000+0 -21828-1 0  9993
2 68034  97.2856  36.9791 0001932 105.4605 133.8889 15.65968960  5461
STARLINK-36943          
1 68035U 26040W   26087.59719568  .00356715  00000+0  22863-2 0  9996
2 68035  97.2852  37.0125 0002600  65.9211 294.2326 15.75267044  5461
STARLINK-36906          
1 68036U 26040X   26087.83335647 -.01919487  00000+0 -23517-1 0  9996
2 68036  97.2847  37.2303 0002057  96.3553  93.6124 15.63480785  5507
STARLINK-36388          
1 68037U 26040Y   26087.34343617  .00214176  00000+0  14008-2 0  9995
2 68037  97.2863  36.7428 0002666  73.5208 286.6350 15.75192231  4297
STARLINK-36895          
1 68038U 26040Z   26087.83335647  .00028334  00000+0  19038-3 0  9992
2 68038  97.2866  37.2502 0001496  82.7778 161.6518 15.75168060  5500
STARLINK-36373          
1 68039U 26040AA  26087.83335647 -.01911637  00000+0 -24097-1 0  9992
2 68039  97.2850  37.2235 0002089  93.6393  80.7538 15.62743299  5456
STARLINK-36711          
1 68040U 26041A   26086.97878242  .00281592  00000+0  17735-2 0  9991
2 68040  53.1584 331.0342 0001103  48.3262 311.7853 15.75330431  4107
STARLINK-36825          
1 68041U 26041B   26087.87847924  .00184360  00000+0  91562-3 0  9991
2 68041  53.1587 325.9577 0000955 130.4998 229.6108 15.80924285  4254
STARLINK-36925          
1 68042U 26041C   26087.86702009  .00506868  00000+0  29864-2 0  9991
2 68042  53.1574 326.6189 0002615 254.5119 105.5613 15.76218484  4240
STARLINK-36902          
1 68043U 26041D   26087.83335647 -.00117937  00000+0 -77415-3 0  9992
2 68043  53.1594 326.2602 0001045 104.0355 322.5518 15.75291668  5459
STARLINK-36966          
1 68044U 26041E   26087.86281651  .00470494  00000+0  28723-2 0  9996
2 68044  53.1592 326.5916 0000427 304.1729  55.9250 15.75503583  4248
STARLINK-36864          
1 68045U 26041F   26087.73558242  .00493202  00000+0  30046-2 0  9999
2 68045  53.1592 327.2199 0000087 211.3366 148.7649 15.75486828  4221
STARLINK-36321          
1 68046U 26041G   26087.83525203  .00285441  00000+0  17987-2 0  9995
2 68046  53.1585 326.4078 0001206  36.5325 323.5778 15.75307249  4244
STARLINK-36181          
1 68047U 26041H   26087.83335647 -.00111972  00000+0 -73394-3 0  9991
2 68047  53.1590 326.2071 0001004 105.7982 346.5364 15.75302189  5331
STARLINK-36318          
1 68048U 26041J   26087.85827601  .00315684  00000+0  19854-2 0  9994
2 68048  53.1596 326.5614 0000905  74.2404 285.8716 15.75263512  4243
STARLINK-36885          
1 68049U 26041K   26087.66760610  .00471370  00000+0  28815-2 0  9992
2 68049  53.1607 327.5041 0000904 283.8681  76.2239 15.75472133  4216
